CALSPHERE 1             
1 00900U 64063C   24154.73229796  .00000851  00000+0  87936-3 0  9998
2 00900  90.2054  55.0715 0027949  28.1606  55.0369 13.75049679969045
CALSPHERE 2             
1 00902U 64063E   24154.67246001  .00000035  00000+0  39794-4 0  9995
2 00902  90.2214  58.6692 0016926 224.6271 157.6310 13.52799692755604
LCS 1                   
1 01361U 65034C   24154.96393791  .00000024  00000+0  20401-2 0  9996
2 01361  32.1365 144.0638 0006048 343.0278  17.0016  9.89305777136183
TEMPSAT 1               
1 01512U 65065E   24154.23110227  .00000043  00000+0  67297-4 0  9996
2 01512  89.9553 214.1410 0069834 178.9119 254.1350 13.33515931860760
CALSPHERE 4A            
1 01520U 65065H   24154.88494000  .00000156  00000+0  28142-3 0  9990
2 01520  89.9452 128.1253 0070927  44.8919  39.1630 13.36068160863316
OPS 5712 (P/L 160)      
1 02826U 67053A   24154.88156227  .00007011  00000+0  14943-2 0  9995
2 02826  69.9264  38.9586 0001873  86.2100 273.9252 14.59301431956877
OPS 5712 (P/L 153)      
1 02874U 67053H   24154.47947707  .00000059  00000+0  80702-4 0  9997
2 02874  69.9743 271.2676 0004829  80.2340 279.9311 13.96591095902799
SURCAL 150B             
1 02909U 67053J   24154.93461952  .00016689  00000+0  21661-2 0  9993
2 02909  69.9411 345.3916 0003797 169.6153 190.5076 14.80797990968926
RIGIDSPHERE 2 (LCS 4)   
1 05398U 71067E   24154.89281031  .00000902  00000+0  29942-3 0  9993
2 05398  87.6281 185.1390 0061693 177.1994 182.9562 14.35761591766991
COSMOS 2493 (SKRL-756 1)
1 39490U 13078A   24154.88091491  .00003805  00000+0  35215-3 0  9994
2 39490  82.4160 265.3969 0014678 227.6333 132.3645 14.94217350566478
COSMOS 2494 (SKRL-756 2)
1 39491U 13078B   24154.88942367  .00004758  00000+0  41978-3 0  9993
2 39491  82.4160 257.4250 0019300 197.7800 162.2748 14.96072918567150
